[{"OBJECT_NAME":"STARLINK-35377","OBJECT_ID":"2025-243J","EPOCH":"2026-03-09T21:44:56.321088","MEAN_MOTION":15.30199722,"ECCENTRICITY":0.0001027,"INCLINATION":53.1575,"RA_OF_ASC_NODE":244.4825,"ARG_OF_PERICENTER":79.4953,"MEAN_ANOMALY":280.6163,"EPHEMERIS_TYPE":0,"CLASSIFICATION_TYPE":"U","NORAD_CAT_ID":66185,"ELEMENT_SET_NO":999,"REV_AT_EPOCH":2068,"BSTAR":0.0010294936,"MEAN_MOTION_DOT":0.00030255,"MEAN_MOTION_DDOT":0},{"OBJECT_NAME":"DELTA 1 DEB","OBJECT_ID":"1977-065EL","EPOCH":"2026-03-09T10:51:18.661248","MEAN_MOTION":14.3286909,"ECCENTRICITY":0.0430373,"INCLINATION":29.2548,"RA_OF_ASC_NODE":97.596,"ARG_OF_PERICENTER":297.4276,"MEAN_ANOMALY":58.3168,"EPHEMERIS_TYPE":0,"CLASSIFICATION_TYPE":"U","NORAD_CAT_ID":10478,"ELEMENT_SET_NO":999,"REV_AT_EPOCH":42332,"BSTAR":0.0017306922,"MEAN_MOTION_DOT":0.00013988,"MEAN_MOTION_DDOT":0}]
